[{"OBJECT_NAME":"HAWK-12A","OBJECT_ID":"2025-138C","EPOCH":"2026-03-09T22:54:48.597696","MEAN_MOTION":15.17349329,"ECCENTRICITY":0.00159877,"INCLINATION":97.4429,"RA_OF_ASC_NODE":73.3872,"ARG_OF_PERICENTER":120.0729,"MEAN_ANOMALY":240.2092,"EPHEMERIS_TYPE":0,"CLASSIFICATION_TYPE":"U","NORAD_CAT_ID":64623,"ELEMENT_SET_NO":999,"REV_AT_EPOCH":3881,"BSTAR":0.00032645128,"MEAN_MOTION_DOT":6.47e-5,"MEAN_MOTION_DDOT":0},{"OBJECT_NAME":"KOWSAR 1.5","OBJECT_ID":"2025-313S","EPOCH":"2026-03-09T21:18:16.087680","MEAN_MOTION":15.21036379,"ECCENTRICITY":0.00150628,"INCLINATION":97.409,"RA_OF_ASC_NODE":145.1794,"ARG_OF_PERICENTER":3.7915,"MEAN_ANOMALY":356.3432,"EPHEMERIS_TYPE":0,"CLASSIFICATION_TYPE":"U","NORAD_CAT_ID":67264,"ELEMENT_SET_NO":999,"REV_AT_EPOCH":1084,"BSTAR":0.00042645892,"MEAN_MOTION_DOT":9.43e-5,"MEAN_MOTION_DDOT":0}]
